[{"OBJECT_NAME":"STARLINK-35291","OBJECT_ID":"2025-235AB","EPOCH":"2026-03-09T17:39:12.870432","MEAN_MOTION":15.30203426,"ECCENTRICITY":0.00010426,"INCLINATION":53.1594,"RA_OF_ASC_NODE":245.3982,"ARG_OF_PERICENTER":117.4131,"MEAN_ANOMALY":242.6976,"EPHEMERIS_TYPE":0,"CLASSIFICATION_TYPE":"U","NORAD_CAT_ID":66083,"ELEMENT_SET_NO":999,"REV_AT_EPOCH":2289,"BSTAR":0.00065539677,"MEAN_MOTION_DOT":0.00019104,"MEAN_MOTION_DDOT":0},{"OBJECT_NAME":"FENGYUN 1C DEB","OBJECT_ID":"1999-025AUA","EPOCH":"2026-03-09T22:20:03.086592","MEAN_MOTION":15.37519861,"ECCENTRICITY":0.00616014,"INCLINATION":98.7858,"RA_OF_ASC_NODE":60.8335,"ARG_OF_PERICENTER":230.1589,"MEAN_ANOMALY":129.4222,"EPHEMERIS_TYPE":0,"CLASSIFICATION_TYPE":"U","NORAD_CAT_ID":30764,"ELEMENT_SET_NO":999,"REV_AT_EPOCH":2558,"BSTAR":0.00082447851,"MEAN_MOTION_DOT":0.00032356,"MEAN_MOTION_DDOT":0}]
